{"type": "FeatureCollection", "features": [ {"type": "Feature", "properties": {"norad_id": 37867, "name": "COSMOS 2476 (744)", "group": "gnss", "lat": -18.643702541500033, "lon": 69.78426582877056, "alt_km": 19148.05614360118, "timestamp": "2025-12-25T07:41:09.965823+00:00", "meta": {"OBJECT_NAME": "COSMOS 2476 (744)", "OBJECT_ID": "2011-064A", "EPOCH": "2025-12-24T09:57:47.072160", "MEAN_MOTION": 2.13103925, "ECCENTRICITY": 0.00245084, "INCLINATION": 65.1679, "RA_OF_ASC_NODE": 78.7766, "ARG_OF_PERICENTER": 235.0068, "MEAN_ANOMALY": 129.7601, "EPHEMERIS_TYPE": 0, "CLASSIFICATION_TYPE": "U", "NORAD_CAT_ID": 37867, "ELEMENT_SET_NO": 999, "REV_AT_EPOCH": 11004, "BSTAR": 0, "MEAN_MOTION_DOT": 1e-08, "MEAN_MOTION_DDOT": 0}, "tle": {"line1": "1 37867U 11064A   25358.41512815  .00000001  00000+0  00000+0 0  9992", "line2": "2 37867  65.1679  78.7766 0024508 235.0068 129.7601  2.13103925110049"}}, "geometry": {"type": "Point", "coordinates": [69.78426582877056, -18.643702541500033]}}, {"type": "Feature", "properties": {"norad_id": 37868, "name": "COSMOS 2477 (745)", "group": "gnss", "lat": 18.256757607056514, "lon": -109.93412915554451, "alt_km": 19114.183618178016, "timestamp": "2025-12-25T07:41:09.965835+00:00", "meta": {"OBJECT_NAME": "COSMOS 2477 (745)", "OBJECT_ID": "2011-064B", "EPOCH": "2025-12-24T15:22:57.950400", "MEAN_MOTION": 2.13103036, "ECCENTRICITY": 0.00215718, "INCLINATION": 65.1748, "RA_OF_ASC_NODE": 78.8466, "ARG_OF_PERICENTER": 235.4688, "MEAN_ANOMALY": 123.4303, "EPHEMERIS_TYPE": 0, "CLASSIFICATION_TYPE": "U", "NORAD_CAT_ID": 37868, "ELEMENT_SET_NO": 999, "REV_AT_EPOCH": 11003, "BSTAR": 0, "MEAN_MOTION_DOT": 1e-08, "MEAN_MOTION_DDOT": 0}, "tle": {"line1": "1 37868U 11064B   25358.64094850  .00000001  00000+0  00000+0 0  9992", "line2": "2 37868  65.1748  78.8466 0021571 235.4688 123.4303  2.13103036110036"}}, "geometry": {"type": "Point", "coordinates": [-109.93412915554451, 18.256757607056514]}}, {"type": "Feature", "properties": {"norad_id": 37869, "name": "COSMOS 2475 (743)", "group": "gnss", "lat": 54.8852596401222, "lon": -142.22185416710357, "alt_km": 19170.68363942175, "timestamp": "2025-12-25T07:41:09.965847+00:00", "meta": {"OBJECT_NAME": "COSMOS 2475 (743)", "OBJECT_ID": "2011-064C", "EPOCH": "2025-12-24T16:55:12.459648", "MEAN_MOTION": 2.13101671, "ECCENTRICITY": 0.00267692, "INCLINATION": 65.1816, "RA_OF_ASC_NODE": 78.8646, "ARG_OF_PERICENTER": 249.2065, "MEAN_ANOMALY": 114.7226, "EPHEMERIS_TYPE": 0, "CLASSIFICATION_TYPE": "U", "NORAD_CAT_ID": 37869, "ELEMENT_SET_NO": 999, "REV_AT_EPOCH": 11005, "BSTAR": 0, "MEAN_MOTION_DOT": 1e-08, "MEAN_MOTION_DDOT": 0}, "tle": {"line1": "1 37869U 11064C   25358.70500532  .00000001  00000+0  00000+0 0  9999", "line2": "2 37869  65.1816  78.8646 0026769 249.2065 114.7226  2.13101671110051"}}, "geometry": {"type": "Point", "coordinates": [-142.22185416710357, 54.8852596401222]}}, {"type": "Feature", "properties": {"norad_id": 37948, "name": "BEIDOU-2 IGSO-5 (C10)", "group": "gnss", "lat": 21.511766189938317, "lon": -65.53097594095259, "alt_km": 36230.47759617111, "timestamp": "2025-12-25T07:41:09.965859+00:00", "meta": {"OBJECT_NAME": "BEIDOU-2 IGSO-5 (C10)", "OBJECT_ID": "2011-073A", "EPOCH": "2025-12-24T17:40:34.414752", "MEAN_MOTION": 1.00288414, "ECCENTRICITY": 0.01097165, "INCLINATION": 47.9979, "RA_OF_ASC_NODE": 273.7118, "ARG_OF_PERICENTER": 222.1575, "MEAN_ANOMALY": 316.4289, "EPHEMERIS_TYPE": 0, "CLASSIFICATION_TYPE": "U", "NORAD_CAT_ID": 37948, "ELEMENT_SET_NO": 999, "REV_AT_EPOCH": 5138, "BSTAR": 0, "MEAN_MOTION_DOT": -1.39e-06, "MEAN_MOTION_DDOT": 0}, "tle": {"line1": "1 37948U 11073A   25358.73650943 -.00000139  00000+0  00000+0 0  9995", "line2": "2 37948  47.9979 273.7118 0109716 222.1575 316.4289  1.00288414 51383"}}, "geometry": {"type": "Point", "coordinates": [-65.53097594095259, 21.511766189938317]}}, {"type": "Feature", "properties": {"norad_id": 37951, "name": "LUCH 5A (SDCM/PRN 140)", "group": "gnss", "lat": -7.19228730152926, "lon": 16.711926841695547, "alt_km": 35794.66291900289, "timestamp": "2025-12-25T07:41:09.965872+00:00", "meta": {"OBJECT_NAME": "LUCH 5A (SDCM/PRN 140)", "OBJECT_ID": "2011-074B", "EPOCH": "2025-12-24T22:27:17.315712", "MEAN_MOTION": 1.00268947, "ECCENTRICITY": 0.00052512, "INCLINATION": 8.3088, "RA_OF_ASC_NODE": 76.4049, "ARG_OF_PERICENTER": 192.019, "MEAN_ANOMALY": 329.1245, "EPHEMERIS_TYPE": 0, "CLASSIFICATION_TYPE": "U", "NORAD_CAT_ID": 37951, "ELEMENT_SET_NO": 999, "REV_AT_EPOCH": 5130, "BSTAR": 0, "MEAN_MOTION_DOT": -3.1e-07, "MEAN_MOTION_DDOT": 0}, "tle": {"line1": "1 37951U 11074B   25358.93561708 -.00000031  00000+0  00000+0 0  9993", "line2": "2 37951   8.3088  76.4049 0005251 192.0190 329.1245  1.00268947 51301"}}, "geometry": {"type": "Point", "coordinates": [16.711926841695547, -7.19228730152926]}}, {"type": "Feature", "properties": {"norad_id": 38091, "name": "BEIDOU-2 G5 (C05)", "group": "gnss", "lat": -0.9541807797869184, "lon": -92.00804425876343, "alt_km": 35741.162903334596, "timestamp": "2025-12-25T07:41:09.965884+00:00", "meta": {"OBJECT_NAME": "BEIDOU-2 G5 (C05)", "OBJECT_ID": "2012-008A", "EPOCH": "2025-12-24T21:56:20.279040", "MEAN_MOTION": 1.00269863, "ECCENTRICITY": 0.00130968, "INCLINATION": 3.1376, "RA_OF_ASC_NODE": 70.6644, "ARG_OF_PERICENTER": 232.215, "MEAN_ANOMALY": 178.6217, "EPHEMERIS_TYPE": 0, "CLASSIFICATION_TYPE": "U", "NORAD_CAT_ID": 38091, "ELEMENT_SET_NO": 999, "REV_AT_EPOCH": 5062, "BSTAR": 0, "MEAN_MOTION_DOT": 7.7e-07, "MEAN_MOTION_DDOT": 0}, "tle": {"line1": "1 38091U 12008A   25358.91412360  .00000077  00000+0  00000+0 0  9993", "line2": "2 38091   3.1376  70.6644 0013096 232.2150 178.6217  1.00269863 50624"}}, "geometry": {"type": "Point", "coordinates": [-92.00804425876343, -0.9541807797869184]}}, {"type": "Feature", "properties": {"norad_id": 38250, "name": "BEIDOU-2 M3 (C11)", "group": "gnss", "lat": 51.51924326261156, "lon": 9.054111319576092, "alt_km": 21583.279877187946, "timestamp": "2025-12-25T07:41:09.965895+00:00", "meta": {"OBJECT_NAME": "BEIDOU-2 M3 (C11)", "OBJECT_ID": "2012-018A", "EPOCH": "2025-12-24T03:22:03.617760", "MEAN_MOTION": 1.86230154, "ECCENTRICITY": 0.00241099, "INCLINATION": 55.9106, "RA_OF_ASC_NODE": 310.7747, "ARG_OF_PERICENTER": 275.3713, "MEAN_ANOMALY": 84.3565, "EPHEMERIS_TYPE": 0, "CLASSIFICATION_TYPE": "U", "NORAD_CAT_ID": 38250, "ELEMENT_SET_NO": 999, "REV_AT_EPOCH": 9268, "BSTAR": 0, "MEAN_MOTION_DOT": -5.3e-07, "MEAN_MOTION_DDOT": 0}, "tle": {"line1": "1 38250U 12018A   25358.14031965 -.00000053  00000+0  00000+0 0  9999", "line2": "2 38250  55.9106 310.7747 0024109 275.3713  84.3565  1.86230154 92685"}}, "geometry": {"type": "Point", "coordinates": [9.054111319576092, 51.51924326261156]}}, {"type": "Feature", "properties": {"norad_id": 38251, "name": "BEIDOU-2 M4 (C12)", "group": "gnss", "lat": 47.79818003551989, "lon": 81.45318918018884, "alt_km": 21563.218010058634, "timestamp": "2025-12-25T07:41:09.965907+00:00", "meta": {"OBJECT_NAME": "BEIDOU-2 M4 (C12)", "OBJECT_ID": "2012-018B", "EPOCH": "2025-12-24T01:44:14.261856", "MEAN_MOTION": 1.86229893, "ECCENTRICITY": 0.00152512, "INCLINATION": 55.8118, "RA_OF_ASC_NODE": 310.0049, "ARG_OF_PERICENTER": 279.3729, "MEAN_ANOMALY": 80.4579, "EPHEMERIS_TYPE": 0, "CLASSIFICATION_TYPE": "U", "NORAD_CAT_ID": 38251, "ELEMENT_SET_NO": 999, "REV_AT_EPOCH": 9268, "BSTAR": 0, "MEAN_MOTION_DOT": -5.3e-07, "MEAN_MOTION_DDOT": 0}, "tle": {"line1": "1 38251U 12018B   25358.07238729 -.00000053  00000+0  00000+0 0  9999", "line2": "2 38251  55.8118 310.0049 0015251 279.3729  80.4579  1.86229893 92685"}}, "geometry": {"type": "Point", "coordinates": [81.45318918018884, 47.79818003551989]}}, {"type": "Feature", "properties": {"norad_id": 38652, "name": "SES-5 (EGNOS/PRN 136)", "group": "gnss", "lat": -0.06323853531596665, "lon": -145.66278324902586, "alt_km": 35781.41871934749, "timestamp": "2025-12-25T07:41:09.965921+00:00", "meta": {"OBJECT_NAME": "SES-5 (EGNOS/PRN 136)", "OBJECT_ID": "2012-036A", "EPOCH": "2025-12-24T13:07:25.928832", "MEAN_MOTION": 1.00271671, "ECCENTRICITY": 0.00019384, "INCLINATION": 0.0589, "RA_OF_ASC_NODE": 304.4983, "ARG_OF_PERICENTER": 325.2361, "MEAN_ANOMALY": 25.432, "EPHEMERIS_TYPE": 0, "CLASSIFICATION_TYPE": "U", "NORAD_CAT_ID": 38652, "ELEMENT_SET_NO": 999, "REV_AT_EPOCH": 4270, "BSTAR": 0, "MEAN_MOTION_DOT": 5.5e-07, "MEAN_MOTION_DDOT": 0}, "tle": {"line1": "1 38652U 12036A   25358.54682788  .00000055  00000+0  00000+0 0  9995", "line2": "2 38652   0.0589 304.4983 0001938 325.2361  25.4320  1.00271671 42706"}}, "geometry": {"type": "Point", "coordinates": [-145.66278324902586, -0.06323853531596665]}}, {"type": "Feature", "properties": {"norad_id": 38775, "name": "BEIDOU-2 M6 (C14)", "group": "gnss", "lat": -39.382874182155454, "lon": 35.620688583277605, "alt_km": 21505.904432150684, "timestamp": "2025-12-25T07:41:09.965934+00:00", "meta": {"OBJECT_NAME": "BEIDOU-2 M6 (C14)", "OBJECT_ID": "2012-050B", "EPOCH": "2025-12-24T07:41:05.368128", "MEAN_MOTION": 1.86230801, "ECCENTRICITY": 0.00114872, "INCLINATION": 56.388, "RA_OF_ASC_NODE": 68.6832, "ARG_OF_PERICENTER": 343.1884, "MEAN_ANOMALY": 16.8281, "EPHEMERIS_TYPE": 0, "CLASSIFICATION_TYPE": "U", "NORAD_CAT_ID": 38775, "ELEMENT_SET_NO": 999, "REV_AT_EPOCH": 9005, "BSTAR": 0, "MEAN_MOTION_DOT": -2.4e-07, "MEAN_MOTION_DDOT": 0}, "tle": {"line1": "1 38775U 12050B   25358.32020102 -.00000024  00000+0  00000+0 0  9996", "line2": "2 38775  56.3880  68.6832 0011487 343.1884  16.8281  1.86230801 90056"}}, "geometry": {"type": "Point", "coordinates": [35.620688583277605, -39.382874182155454]}}]}